{"type": "FeatureCollection", "features": [ {"type": "Feature", "properties": {"norad_id": 44542, "name": "BEIDOU-3 M24 (C46)", "group": "gnss", "lat": -32.66718446325533, "lon": 36.64659842524654, "alt_km": 21557.784956446718, "timestamp": "2025-12-04T15:47:54.340911+00:00", "meta": {"OBJECT_NAME": "BEIDOU-3 M24 (C46)", "OBJECT_ID": "2019-061A", "EPOCH": "2025-12-03T18:58:50.861280", "MEAN_MOTION": 1.86229252, "ECCENTRICITY": 0.00095721, "INCLINATION": 54.4001, "RA_OF_ASC_NODE": 189.3183, "ARG_OF_PERICENTER": 23.909, "MEAN_ANOMALY": 336.2302, "EPHEMERIS_TYPE": 0, "CLASSIFICATION_TYPE": "U", "NORAD_CAT_ID": 44542, "ELEMENT_SET_NO": 999, "REV_AT_EPOCH": 4215, "BSTAR": 0, "MEAN_MOTION_DOT": 1.12e-06, "MEAN_MOTION_DDOT": 0}, "tle": {"line1": "1 44542U 19061A   25337.79086645  .00000112  00000+0  00000+0 0  9993", "line2": "2 44542  54.4001 189.3183 0009572  23.9090 336.2302  1.86229252 42152"}}, "geometry": {"type": "Point", "coordinates": [36.64659842524654, -32.66718446325533]}}, {"type": "Feature", "properties": {"norad_id": 44543, "name": "BEIDOU-3 M23 (C45)", "group": "gnss", "lat": 35.42362829020541, "lon": -21.374159715872647, "alt_km": 21530.315617268483, "timestamp": "2025-12-04T15:47:54.340922+00:00", "meta": {"OBJECT_NAME": "BEIDOU-3 M23 (C45)", "OBJECT_ID": "2019-061B", "EPOCH": "2025-12-04T04:33:30.400416", "MEAN_MOTION": 1.86227468, "ECCENTRICITY": 0.0006118, "INCLINATION": 54.3989, "RA_OF_ASC_NODE": 189.2733, "ARG_OF_PERICENTER": 22.8981, "MEAN_ANOMALY": 157.6124, "EPHEMERIS_TYPE": 0, "CLASSIFICATION_TYPE": "U", "NORAD_CAT_ID": 44543, "ELEMENT_SET_NO": 999, "REV_AT_EPOCH": 4216, "BSTAR": 0, "MEAN_MOTION_DOT": 1.08e-06, "MEAN_MOTION_DDOT": 0}, "tle": {"line1": "1 44543U 19061B   25338.18993519  .00000108  00000+0  00000+0 0  9990", "line2": "2 44543  54.3989 189.2733 0006118  22.8981 157.6124  1.86227468 42162"}}, "geometry": {"type": "Point", "coordinates": [-21.374159715872647, 35.42362829020541]}}, {"type": "Feature", "properties": {"norad_id": 44624, "name": "EUTELSAT 5 WEST B (EGNOS/PRN 121)", "group": "gnss", "lat": -0.03726597742813304, "lon": -54.27993222498866, "alt_km": 35777.80352645897, "timestamp": "2025-12-04T15:47:54.340935+00:00", "meta": {"OBJECT_NAME": "EUTELSAT 5 WEST B (EGNOS/PRN 121)", "OBJECT_ID": "2019-067A", "EPOCH": "2025-12-04T05:08:27.051936", "MEAN_MOTION": 1.00268945, "ECCENTRICITY": 0.00034846, "INCLINATION": 0.0701, "RA_OF_ASC_NODE": 329.9131, "ARG_OF_PERICENTER": 283.6966, "MEAN_ANOMALY": 251.8026, "EPHEMERIS_TYPE": 0, "CLASSIFICATION_TYPE": "U", "NORAD_CAT_ID": 44624, "ELEMENT_SET_NO": 999, "REV_AT_EPOCH": 2248, "BSTAR": 0, "MEAN_MOTION_DOT": -2.7e-07, "MEAN_MOTION_DDOT": 0}, "tle": {"line1": "1 44624U 19067A   25338.21420199 -.00000027  00000+0  00000+0 0  9990", "line2": "2 44624   0.0701 329.9131 0003484 283.6966 251.8026  1.00268945 22482"}}, "geometry": {"type": "Point", "coordinates": [-54.27993222498866, -0.03726597742813304]}}, {"type": "Feature", "properties": {"norad_id": 44709, "name": "BEIDOU-3 IGSO-3 (C40)", "group": "gnss", "lat": 30.700984467781183, "lon": 78.55664485754417, "alt_km": 35668.725611402115, "timestamp": "2025-12-04T15:47:54.340947+00:00", "meta": {"OBJECT_NAME": "BEIDOU-3 IGSO-3 (C40)", "OBJECT_ID": "2019-073A", "EPOCH": "2025-11-20T07:11:22.740000", "MEAN_MOTION": 1.00250097, "ECCENTRICITY": 0.0044538, "INCLINATION": 55.163, "RA_OF_ASC_NODE": 283.159, "ARG_OF_PERICENTER": 191.5856, "MEAN_ANOMALY": 168.2409, "EPHEMERIS_TYPE": 0, "CLASSIFICATION_TYPE": "U", "NORAD_CAT_ID": 44709, "ELEMENT_SET_NO": 999, "REV_AT_EPOCH": 2236, "BSTAR": 0, "MEAN_MOTION_DOT": -2.06e-06, "MEAN_MOTION_DDOT": 0}, "tle": {"line1": "1 44709U 19073A   25324.29956875 -.00000206  00000+0  00000+0 0  9998", "line2": "2 44709  55.1630 283.1590 0044538 191.5856 168.2409  1.00250097 22360"}}, "geometry": {"type": "Point", "coordinates": [78.55664485754417, 30.700984467781183]}}, {"type": "Feature", "properties": {"norad_id": 44793, "name": "BEIDOU-3 M22 (C44)", "group": "gnss", "lat": -24.86130787161375, "lon": -72.94196041263706, "alt_km": 21521.981723361874, "timestamp": "2025-12-04T15:47:54.340961+00:00", "meta": {"OBJECT_NAME": "BEIDOU-3 M22 (C44)", "OBJECT_ID": "2019-078A", "EPOCH": "2025-12-02T00:28:58.554624", "MEAN_MOTION": 1.86231817, "ECCENTRICITY": 0.00056333, "INCLINATION": 54.1183, "RA_OF_ASC_NODE": 306.7625, "ARG_OF_PERICENTER": 22.616, "MEAN_ANOMALY": 337.398, "EPHEMERIS_TYPE": 0, "CLASSIFICATION_TYPE": "U", "NORAD_CAT_ID": 44793, "ELEMENT_SET_NO": 999, "REV_AT_EPOCH": 4097, "BSTAR": 0, "MEAN_MOTION_DOT": -6.1e-07, "MEAN_MOTION_DDOT": 0}, "tle": {"line1": "1 44793U 19078A   25336.02012216 -.00000061  00000+0  00000+0 0  9991", "line2": "2 44793  54.1183 306.7625 0005633  22.6160 337.3980  1.86231817 40974"}}, "geometry": {"type": "Point", "coordinates": [-72.94196041263706, -24.86130787161375]}}, {"type": "Feature", "properties": {"norad_id": 44794, "name": "BEIDOU-3 M21 (C43)", "group": "gnss", "lat": -42.542689448994814, "lon": 168.26834063117158, "alt_km": 21541.016918635356, "timestamp": "2025-12-04T15:47:54.340977+00:00", "meta": {"OBJECT_NAME": "BEIDOU-3 M21 (C43)", "OBJECT_ID": "2019-078B", "EPOCH": "2025-12-04T07:19:45.423840", "MEAN_MOTION": 1.86227545, "ECCENTRICITY": 0.00039582, "INCLINATION": 54.0893, "RA_OF_ASC_NODE": 306.6475, "ARG_OF_PERICENTER": 10.7683, "MEAN_ANOMALY": 349.2229, "EPHEMERIS_TYPE": 0, "CLASSIFICATION_TYPE": "U", "NORAD_CAT_ID": 44794, "ELEMENT_SET_NO": 999, "REV_AT_EPOCH": 4102, "BSTAR": 0, "MEAN_MOTION_DOT": -6.8e-07, "MEAN_MOTION_DDOT": 0}, "tle": {"line1": "1 44794U 19078B   25338.30538685 -.00000068  00000+0  00000+0 0  9995", "line2": "2 44794  54.0893 306.6475 0003958  10.7683 349.2229  1.86227545 41028"}}, "geometry": {"type": "Point", "coordinates": [168.26834063117158, -42.542689448994814]}}, {"type": "Feature", "properties": {"norad_id": 44850, "name": "COSMOS 2544 (759)", "group": "gnss", "lat": -61.13677762760364, "lon": 24.370436314682443, "alt_km": 19108.370560510102, "timestamp": "2025-12-04T15:47:54.340988+00:00", "meta": {"OBJECT_NAME": "COSMOS 2544 (759)", "OBJECT_ID": "2019-088A", "EPOCH": "2025-12-03T19:35:48.045120", "MEAN_MOTION": 2.13101769, "ECCENTRICITY": 0.00137151, "INCLINATION": 65.4552, "RA_OF_ASC_NODE": 80.257, "ARG_OF_PERICENTER": 248.9953, "MEAN_ANOMALY": 110.8552, "EPHEMERIS_TYPE": 0, "CLASSIFICATION_TYPE": "U", "NORAD_CAT_ID": 44850, "ELEMENT_SET_NO": 999, "REV_AT_EPOCH": 4655, "BSTAR": 0, "MEAN_MOTION_DOT": -2.3e-07, "MEAN_MOTION_DDOT": 0}, "tle": {"line1": "1 44850U 19088A   25337.81652830 -.00000023  00000+0  00000+0 0  9994", "line2": "2 44850  65.4552  80.2570 0013715 248.9953 110.8552  2.13101769 46551"}}, "geometry": {"type": "Point", "coordinates": [24.370436314682443, -61.13677762760364]}}, {"type": "Feature", "properties": {"norad_id": 44864, "name": "BEIDOU-3 M19 (C41)", "group": "gnss", "lat": 52.55546207847669, "lon": 129.37391603690983, "alt_km": 21563.122409186824, "timestamp": "2025-12-04T15:47:54.340999+00:00", "meta": {"OBJECT_NAME": "BEIDOU-3 M19 (C41)", "OBJECT_ID": "2019-090A", "EPOCH": "2025-12-02T22:27:31.551840", "MEAN_MOTION": 1.86231053, "ECCENTRICITY": 0.00175607, "INCLINATION": 56.3847, "RA_OF_ASC_NODE": 69.2872, "ARG_OF_PERICENTER": 284.9296, "MEAN_ANOMALY": 72.494, "EPHEMERIS_TYPE": 0, "CLASSIFICATION_TYPE": "U", "NORAD_CAT_ID": 44864, "ELEMENT_SET_NO": 999, "REV_AT_EPOCH": 4057, "BSTAR": 0, "MEAN_MOTION_DOT": -4.9e-07, "MEAN_MOTION_DDOT": 0}, "tle": {"line1": "1 44864U 19090A   25336.93578185 -.00000049  00000+0  00000+0 0  9992", "line2": "2 44864  56.3847  69.2872 0017560 284.9296  72.4940  1.86231053 40575"}}, "geometry": {"type": "Point", "coordinates": [129.37391603690983, 52.55546207847669]}}, {"type": "Feature", "properties": {"norad_id": 44865, "name": "BEIDOU-3 M20 (C42)", "group": "gnss", "lat": 15.080627824641443, "lon": -121.03997408945773, "alt_km": 21555.73987677833, "timestamp": "2025-12-04T15:47:54.341012+00:00", "meta": {"OBJECT_NAME": "BEIDOU-3 M20 (C42)", "OBJECT_ID": "2019-090B", "EPOCH": "2025-12-02T19:15:49.919904", "MEAN_MOTION": 1.86231044, "ECCENTRICITY": 0.00146831, "INCLINATION": 56.3861, "RA_OF_ASC_NODE": 69.3259, "ARG_OF_PERICENTER": 297.6742, "MEAN_ANOMALY": 60.1134, "EPHEMERIS_TYPE": 0, "CLASSIFICATION_TYPE": "U", "NORAD_CAT_ID": 44865, "ELEMENT_SET_NO": 999, "REV_AT_EPOCH": 4055, "BSTAR": 0, "MEAN_MOTION_DOT": -4.8e-07, "MEAN_MOTION_DDOT": 0}, "tle": {"line1": "1 44865U 19090B   25336.80266111 -.00000048  00000+0  00000+0 0  9991", "line2": "2 44865  56.3861  69.3259 0014683 297.6742  60.1134  1.86231044 40559"}}, "geometry": {"type": "Point", "coordinates": [-121.03997408945773, 15.080627824641443]}}, {"type": "Feature", "properties": {"norad_id": 45344, "name": "BEIDOU-3 G2 (C60)", "group": "gnss", "lat": -0.6380375815691269, "lon": 30.805490439145057, "alt_km": 35784.402711252966, "timestamp": "2025-12-04T15:47:54.341024+00:00", "meta": {"OBJECT_NAME": "BEIDOU-3 G2 (C60)", "OBJECT_ID": "2020-017A", "EPOCH": "2025-12-04T03:50:04.560000", "MEAN_MOTION": 1.00270213, "ECCENTRICITY": 0.0004673, "INCLINATION": 2.9843, "RA_OF_ASC_NODE": 43.5798, "ARG_OF_PERICENTER": 263.9443, "MEAN_ANOMALY": 263.2835, "EPHEMERIS_TYPE": 0, "CLASSIFICATION_TYPE": "U", "NORAD_CAT_ID": 45344, "ELEMENT_SET_NO": 999, "REV_AT_EPOCH": 2130, "BSTAR": 0, "MEAN_MOTION_DOT": -1.27e-06, "MEAN_MOTION_DDOT": 0}, "tle": {"line1": "1 45344U 20017A   25338.15977500 -.00000127  00000+0  00000+0 0  9994", "line2": "2 45344   2.9843  43.5798 0004673 263.9443 263.2835  1.00270213 21306"}}, "geometry": {"type": "Point", "coordinates": [30.805490439145057, -0.6380375815691269]}}]}